$$SOE
2460154.500000000, A.D. 2023-Jul-29 00:00:00.0000, -1.638945811359885E+08, 2.782887445759732E+08, 1.960937027566567E+06,
2460161.500000000, A.D. 2023-Aug-05 00:00:00.0000, -1.745916214448688E+08, 2.717360203784035E+08, 1.344417564683735E+06,
2460168.500000000, A.D. 2023-Aug-12 00:00:00.0000, -1.850371859229857E+08, 2.647918550487922E+08, 7.259623654508442E+05,
2460175.500000000, A.D. 2023-Aug-19 00:00:00.0000, -1.952163453035089E+08, 2.574664110825649E+08, 1.064629131200463E+05,
2460182.500000000, A.D. 2023-Aug-26 00:00:00.0000, -2.051146260132026E+08, 2.497704697778655E+08, -5.131885577717274E+05,
2460189.500000000, A.D. 2023-Sep-02 00:00:00.0000, -2.147180391763869E+08, 2.417154074040565E+08, -1.132100914204180E+06,
2460196.500000000, A.D. 2023-Sep-09 00:00:00.0000, -2.240131080820806E+08, 2.333131696580737E+08, -1.749385977257967E+06,
2460203.500000000, A.D. 2023-Sep-16 00:00:00.0000, -2.329868938417787E+08, 2.245762444684777E+08, -2.364160386937991E+06,
2460210.500000000, A.D. 2023-Sep-23 00:00:00.0000, -2.416270187278955E+08, 2.155176335589734E+08, -2.975547486363009E+06,
2460217.500000000, A.D. 2023-Sep-30 00:00:00.0000, -2.499216874516888E+08, 2.061508240931995E+08, -3.582679089497104E+06,
2460224.500000000, A.D. 2023-Oct-07 00:00:00.0000, -2.578597086695954E+08, 1.964897599977362E+08, -4.184696954419464E+06,
2460231.500000000, A.D. 2023-Oct-14 00:00:00.0000, -2.654305156210275E+08, 1.865488097985869E+08, -4.780754322226688E+06,
2460238.500000000, A.D. 2023-Oct-21 00:00:00.0000, -2.726241826138253E+08, 1.763427327149429E+08, -5.370017679165393E+06,
2460245.500000000, A.D. 2023-Oct-28 00:00:00.0000, -2.794314387507433E+08, 1.658866454081911E+08, -5.951668420003369E+06,
2460252.500000000, A.D. 2023-Nov-04 00:00:00.0000, -2.858436801359255E+08, 1.551959887660773E+08, -6.524904356578976E+06,
2460259.500000000, A.D. 2023-Nov-11 00:00:00.0000, -2.918529803775351E+08, 1.442864942726302E+08, -7.088941132342815E+06,
2460266.500000000, A.D. 2023-Nov-18 00:00:00.0000, -2.974520991711695E+08, 1.331741500437241E+08, -7.643013563791201E+06,
2460273.500000000, A.D. 2023-Nov-25 00:00:00.0000, -3.026344889092436E+08, 1.218751666916488E+08, -8.186376909960948E+06,
2460280.500000000, A.D. 2023-Dec-02 00:00:00.0000, -3.073942993185574E+08, 1.104059431459291E+08, -8.718308070745766E+06,
2460287.500000000, A.D. 2023-Dec-09 00:00:00.0000, -3.117263800882854E+08, 9.878303250721110E+07, -9.238106723954100E+06,
2460294.500000000, A.D. 2023-Dec-16 00:00:00.0000, -3.156262812466576E+08, 8.702310807833934E+07, -9.745096424589843E+06,
2460301.500000000, A.D. 2023-Dec-23 00:00:00.0000, -3.190902509859398E+08, 7.514293038342726E+07, -1.023862563974096E+07,
2460308.500000000, A.D. 2023-Dec-30 00:00:00.0000, -3.221152323288549E+08, 6.315931633340532E+07, -1.071806850759464E+07,
2460315.500000000, A.D. 2024-Jan-06 00:00:00.0000, -3.246988604781557E+08, 5.108910827239662E+07, -1.118282534952829E+07,
2460322.500000000, A.D. 2024-Jan-13 00:00:00.0000, -3.268394577641098E+08, 3.894914118907742E+07, -1.163232337486387E+07,
2460329.500000000, A.D. 2024-Jan-20 00:00:00.0000, -3.285360250565574E+08, 2.675621126677542E+07, -1.206601743989086E+07,
2460336.500000000, A.D. 2024-Jan-27 00:00:00.0000, -3.297882317632829E+08, 1.452704650422523E+07, -1.248339062404820E+07,
2460343.500000000, A.D. 2024-Feb-03 00:00:00.0000, -3.305964049439321E+08, 2.278278531687139E+06, -1.288395466507388E+07,
2460350.500000000, A.D. 2024-Feb-10 00:00:00.0000, -3.309615173613519E+08, -9.973584601100447E+06, -1.326725030527548E+07,
2460357.500000000, A.D. 2024-Feb-17 00:00:00.0000, -3.308851744266363E+08, -2.221218460124189E+07, -1.363284756295538E+07,
2460364.500000000, A.D. 2024-Feb-24 00:00:00.0000, -3.303696000973203E+08, -3.442133801480825E+07, -1.398034593315108E+07,
2460371.500000000, A.D. 2024-Mar-02 00:00:00.0000, -3.294176217969136E+08, -4.658506021333876E+07, -1.430937452565823E+07,
2460378.500000000, A.D. 2024-Mar-09 00:00:00.0000, -3.280326543157046E+08, -5.868758832152852E+07, -1.461959216129528E+07,
2460385.500000000, A.D. 2024-Mar-16 00:00:00.0000, -3.262186823957095E+08, -7.071340286961094E+07, -1.491068744988002E+07,
2460392.500000000, A.D. 2024-Mar-23 00:00:00.0000, -3.239802421987420E+08, -8.264724704844978E+07, -1.518237875314349E+07,
2460399.500000000, A.D. 2024-Mar-30 00:00:00.0000, -3.213224039904343E+08, -9.447414358836307E+07, -1.543441383263633E+07,
2460406.500000000, A.D. 2024-Apr-06 00:00:00.0000, -3.182507558749296E+08, -1.061794126314473E+08, -1.566656948518566E+07,
2460413.500000000, A.D. 2024-Apr-13 00:00:00.0000, -3.147713851175931E+08, -1.177486897676493E+08, -1.587865142684334E+07,
2460420.500000000, A.D. 2024-Apr-20 00:00:00.0000, -3.108908580863495E+08, -1.291679415684227E+08, -1.607049412155682E+07,
2460427.500000000, A.D. 2024-Apr-27 00:00:00.0000, -3.066162003991418E+08, -1.404234791996704E+08, -1.624196046352332E+07,
2460434.500000000, A.D. 2024-May-04 00:00:00.0000, -3.019548772618022E+08, -1.515019708488197E+08, -1.639294138255294E+07,
2460441.500000000, A.D. 2024-May-11 00:00:00.0000, -2.969147738343521E+08, -1.623904531033990E+08, -1.652335540744029E+07,
2460448.500000000, A.D. 2024-May-18 00:00:00.0000, -2.915041756179073E+08, -1.730763412941798E+08, -1.663314819760045E+07,
2460455.500000000, A.D. 2024-May-25 00:00:00.0000, -2.857317489047170E+08, -1.835474388446314E+08, -1.672229204966559E+07,
2460462.500000000, A.D. 2024-Jun-01 00:00:00.0000, -2.796065212914558E+08, -1.937919457204868E+08, -1.679078539261357E+07,
2460469.500000000, A.D. 2024-Jun-08 00:00:00.0000, -2.731378620629521E+08, -2.037984660410343E+08, -1.683865229894178E+07,
2460476.500000000, A.D. 2024-Jun-15 00:00:00.0000, -2.663354620945272E+08, -2.135560143476906E+08, -1.686594200669172E+07,
2460483.500000000, A.D. 2024-Jun-22 00:00:00.0000, -2.592093143197499E+08, -2.230540193967322E+08, -1.687272826651154E+07,
2460490.500000000, A.D. 2024-Jun-29 00:00:00.0000, -2.517696969212624E+08, -2.322823273414665E+08, -1.685910847044994E+07,
2460497.500000000, A.D. 2024-Jul-06 00:00:00.0000, -2.440271566339274E+08, -2.412312068234592E+08, -1.682520300993986E+07,
2460504.500000000, A.D. 2024-Jul-13 00:00:00.0000, -2.359924902440568E+08, -2.498913531974303E+08, -1.677115481366840E+07,
2460511.500000000, A.D. 2024-Jul-20 00:00:00.0000, -2.276767262979469E+08, -2.582538907865290E+08, -1.669712879132520E+07,
2460518.500000000, A.D. 2024-Jul-27 00:00:00.0000, -2.190911076966750E+08, -2.663103741710645E+08, -1.660331120318967E+07,
2460525.500000000, A.D. 2024-Aug-03 00:00:00.0000, -2.102470749198991E+08, -2.740527889302444E+08, -1.648990901325965E+07,
2460532.500000000, A.D. 2024-Aug-10 00:00:00.0000, -2.011562497261074E+08, -2.814735518883886E+08, -1.635714924402338E+07,
2460539.500000000, A.D. 2024-Aug-17 00:00:00.0000, -1.918304192945848E+08, -2.885655108913442E+08, -1.620527833799420E+07,
2460546.500000000, A.D. 2024-Aug-24 00:00:00.0000, -1.822815207920282E+08, -2.953219441808133E+08, -1.603456153254701E+07,
2460553.500000000, A.D. 2024-Aug-31 00:00:00.0000, -1.725216262560612E+08, -3.017365594713379E+08, -1.584528226551299E+07,
2460560.500000000, A.D. 2024-Sep-07 00:00:00.0000, -1.625629274357529E+08, -3.078034926445846E+08, -1.563774163624482E+07,
2460567.500000000, A.D. 2024-Sep-14 00:00:00.0000, -1.524177205074872E+08, -3.135173051018592E+08, -1.541225784950991E+07,
2460574.500000000, A.D. 2024-Sep-21 00:00:00.0000, -1.420983926941598E+08, -3.188729793925419E+08, -1.516916542258805E+07,
2460581.500000000, A.D. 2024-Sep-28 00:00:00.0000, -1.316174112668799E+08, -3.238659163728896E+08, -1.490881437469316E+07,
2460588.500000000, A.D. 2024-Oct-05 00:00:00.0000, -1.209873112460274E+08, -3.284919339247569E+08, -1.463156973600113E+07,
2460595.500000000, A.D. 2024-Oct-12 00:00:00.0000, -1.102206821489260E+08, -3.327472642913291E+08, -1.433781110129729E+07,
2460602.500000000, A.D. 2024-Oct-19 00:00:00.0000, -9.933015552497180E+07, -3.366285503397533E+08, -1.402793209165069E+07,
2460609.500000000, A.D. 2024-Oct-26 00:00:00.0000, -8.832839330410917E+07, -3.401328415878642E+08, -1.370233978796005E+07,
2460616.500000000, A.D. 2024-Nov-02 00:00:00.0000, -7.722807669469813E+07, -3.432575901721721E+08, -1.336145417252538E+07,
2460623.500000000, A.D. 2024-Nov-09 00:00:00.0000, -6.604189552352394E+07, -3.460006467596467E+08, -1.300570758578314E+07,
2460630.500000000, A.D. 2024-Nov-16 00:00:00.0000, -5.478253797765369E+07, -3.483602564249070E+08, -1.263554420048358E+07,
2460637.500000000, A.D. 2024-Nov-23 00:00:00.0000, -4.346268068572979E+07, -3.503350545645484E+08, -1.225141952151637E+07,
2460644.500000000, A.D. 2024-Nov-30 00:00:00.0000, -3.209497891481733E+07, -3.519240629116567E+08, -1.185379993363638E+07,
2460651.500000000, A.D. 2024-Dec-07 00:00:00.0000, -2.069205644726432E+07, -3.531266852482643E+08, -1.144316230078097E+07,
2460658.500000000, A.D. 2024-Dec-14 00:00:00.0000, -9.266495809631435E+06, -3.539427016079583E+08, -1.101999345336646E+07,
2460665.500000000, A.D. 2024-Dec-21 00:00:00.0000, 2.169168845120269E+06, -3.543722622224380E+08, -1.058478945189910E+07,
2460672.500000000, A.D. 2024-Dec-28 00:00:00.0000, 1.360245819370894E+07, -3.544158841912974E+08, -1.013805505008239E+07,
2460679.500000000, A.D. 2025-Jan-04 00:00:00.0000, 2.502095615321751E+07, -3.540744485129032E+08, -9.680303401163146E+06,
2460686.500000000, A.D. 2025-Jan-11 00:00:00.0000, 3.641231844288001E+07, -3.533491958298386E+08, -9.212055704229936E+06,
2460693.500000000, A.D. 2025-Jan-18 00:00:00.0000, 4.776428039751814E+07, -3.522417218180827E+08, -8.733840780686989E+06,
2460700.500000000, A.D. 2025-Jan-25 00:00:00.0000, 5.906466429366516E+07, -3.507539727028630E+08, -8.246194641202793E+06,
2460707.500000000, A.D. 2025-Feb-01 00:00:00.0000, 7.030138639506125E+07, -3.488882409378713E+08, -7.749660062144622E+06,
2460714.500000000, A.D. 2025-Feb-08 00:00:00.0000, 8.146246379308231E+07, -3.466471610323563E+08, -7.244786174525529E+06,
$$EOE